[{"OBJECT_NAME":"PRAETORIAN SDA_618","OBJECT_ID":"2025-203S","EPOCH":"2026-04-01T09:19:06.190176","MEAN_MOTION":13.8476411,"ECCENTRICITY":0.0010706,"INCLINATION":81.2988,"RA_OF_ASC_NODE":81.6824,"ARG_OF_PERICENTER":45.9333,"MEAN_ANOMALY":314.2704,"EPHEMERIS_TYPE":0,"CLASSIFICATION_TYPE":"U","NORAD_CAT_ID":65581,"ELEMENT_SET_NO":999,"REV_AT_EPOCH":2808,"BSTAR":0.00021984,"MEAN_MOTION_DOT":2.59e-6,"MEAN_MOTION_DDOT":0},{"OBJECT_NAME":"PRAETORIAN SDA_619","OBJECT_ID":"2025-203T","EPOCH":"2026-04-01T09:03:58.368960","MEAN_MOTION":13.83933865,"ECCENTRICITY":0.0008946,"INCLINATION":81.3007,"RA_OF_ASC_NODE":81.8703,"ARG_OF_PERICENTER":44.9032,"MEAN_ANOMALY":315.2846,"EPHEMERIS_TYPE":0,"CLASSIFICATION_TYPE":"U","NORAD_CAT_ID":65582,"ELEMENT_SET_NO":999,"REV_AT_EPOCH":2870,"BSTAR":0.00024695,"MEAN_MOTION_DOT":2.86e-6,"MEAN_MOTION_DDOT":0},{"OBJECT_NAME":"PRAETORIAN SDA_620","OBJECT_ID":"2025-203U","EPOCH":"2026-04-01T09:22:24.826368","MEAN_MOTION":13.83708338,"ECCENTRICITY":0.0008458,"INCLINATION":81.2995,"RA_OF_ASC_NODE":81.8584,"ARG_OF_PERICENTER":44.7451,"MEAN_ANOMALY":315.4387,"EPHEMERIS_TYPE":0,"CLASSIFICATION_TYPE":"U","NORAD_CAT_ID":65583,"ELEMENT_SET_NO":999,"REV_AT_EPOCH":2807,"BSTAR":0.00023251,"MEAN_MOTION_DOT":2.69e-6,"MEAN_MOTION_DDOT":0},{"OBJECT_NAME":"PRAETORIAN SDA_621","OBJECT_ID":"2025-203V","EPOCH":"2026-04-01T08:57:32.050368","MEAN_MOTION":13.83790354,"ECCENTRICITY":0.0008274,"INCLINATION":81.2986,"RA_OF_ASC_NODE":81.8187,"ARG_OF_PERICENTER":41.1683,"MEAN_ANOMALY":319.0096,"EPHEMERIS_TYPE":0,"CLASSIFICATION_TYPE":"U","NORAD_CAT_ID":65584,"ELEMENT_SET_NO":999,"REV_AT_EPOCH":2807,"BSTAR":5.8854e-5,"MEAN_MOTION_DOT":7.7e-7,"MEAN_MOTION_DDOT":0},{"OBJECT_NAME":"PRAETORIAN SDA_601","OBJECT_ID":"2025-203W","EPOCH":"2026-04-01T09:21:33.185952","MEAN_MOTION":13.83484679,"ECCENTRICITY":0.0006662,"INCLINATION":81.3007,"RA_OF_ASC_NODE":82.0305,"ARG_OF_PERICENTER":57.3529,"MEAN_ANOMALY":302.8269,"EPHEMERIS_TYPE":0,"CLASSIFICATION_TYPE":"U","NORAD_CAT_ID":65585,"ELEMENT_SET_NO":999,"REV_AT_EPOCH":2806,"BSTAR":0.00016776,"MEAN_MOTION_DOT":1.97e-6,"MEAN_MOTION_DDOT":0}]
