PRAETORIAN SDA_618      
1 65581U 25203S   26091.38826609  .00000259  00000+0  21984-3 0  9999
2 65581  81.2988  81.6824 0010706  45.9333 314.2704 13.84764110 28087
PRAETORIAN SDA_619      
1 65582U 25203T   26091.37775890  .00000286  00000+0  24695-3 0  9996
2 65582  81.3007  81.8703 0008946  44.9032 315.2846 13.83933865 28708
PRAETORIAN SDA_620      
1 65583U 25203U   26091.39056512  .00000269  00000+0  23251-3 0  9990
2 65583  81.2995  81.8584 0008458  44.7451 315.4387 13.83708338 28079
PRAETORIAN SDA_621      
1 65584U 25203V   26091.37328762  .00000077  00000+0  58854-4 0  9993
2 65584  81.2986  81.8187 0008274  41.1683 319.0096 13.83790354 28079
PRAETORIAN SDA_601      
1 65585U 25203W   26091.38996743  .00000197  00000+0  16776-3 0  9994
2 65585  81.3007  82.0305 0006662  57.3529 302.8269 13.83484679 28068
